start=new Date('2023-06-06T00:00:00.000Z').valueOf();
sats=[{"DECAY_DATE":null,"TIME_SYSTEM":"UTC","ARG_OF_PERICENTER":"86.7401","EPOCH":"2023-06-05T17:35:42.451008","MEAN_MOTION":"15.08829024","TLE_LINE2":"2 51741  53.2156 164.0201 0001135  86.7401 273.3721 15.08829024 71396","RA_OF_ASC_NODE":"164.0201","GP_ID":"233286167","ELEMENT_SET_NO":"999","CLASSIFICATION_TYPE":"U","LAUNCH_DATE":"2022-02-21","RCS_SIZE":"LARGE","CENTER_NAME":"EARTH","INCLINATION":"53.2156","MEAN_MOTION_DOT":"0.00001483","TLE_LINE1":"1 51741U 22016AD  23156.73313022  .00001483  00000-0  11124-3 0  9995","ECCENTRICITY":"0.00011350","PERIOD":"95.438","COUNTRY_CODE":"US","APOAPSIS":"540.564","SITE":"AFETR","OBJECT_NAME":"STARLINK-3520","MEAN_MOTION_DDOT":"0.0000000000000","SEMIMAJOR_AXIS":"6917.914","MEAN_ANOMALY":"273.3721","OBJECT_ID":"2022-016AD","NORAD_CAT_ID":"51741","FILE":"3925751","OBJECT_TYPE":"PAYLOAD","EPHEMERIS_TYPE":"0","REF_FRAME":"TEME","MEAN_ELEMENT_THEORY":"SGP4","BSTAR":"0.00011124000000","PERIAPSIS":"538.994","REV_AT_EPOCH":"7139"},{"LAUNCH_DATE":"2022-02-21","CLASSIFICATION_TYPE":"U","RCS_SIZE":"LARGE","CENTER_NAME":"EARTH","INCLINATION":"53.2160","MEAN_MOTION_DOT":"-0.00000221","DECAY_DATE":null,"TIME_SYSTEM":"UTC","EPOCH":"2023-06-05T17:09:10.874016","MEAN_MOTION":"15.08835272","ARG_OF_PERICENTER":"87.9419","TLE_LINE2":"2 51742  53.2160 164.0667 0001034  87.9419 272.1692 15.08835272 71394","RA_OF_ASC_NODE":"164.0667","GP_ID":"233285415","ELEMENT_SET_NO":"999","OBJECT_NAME":"STARLINK-3521","SITE":"AFETR","MEAN_ANOMALY":"272.1692","MEAN_MOTION_DDOT":"0.0000000000000","SEMIMAJOR_AXIS":"6917.895","OBJECT_ID":"2022-016AE","NORAD_CAT_ID":"51742","EPHEMERIS_TYPE":"0","OBJECT_TYPE":"PAYLOAD","FILE":"3925751","MEAN_ELEMENT_THEORY":"SGP4","REF_FRAME":"TEME","BSTAR":"0.00000416850000","PERIAPSIS":"539.045","REV_AT_EPOCH":"7139","ECCENTRICITY":"0.00010340","TLE_LINE1":"1 51742U 22016AE  23156.71470919 -.00000221  00000-0  41685-5 0  9990","COUNTRY_CODE":"US","PERIOD":"95.438","APOAPSIS":"540.475"},{"BSTAR":"0.00004367400000","REV_AT_EPOCH":"7148","PERIAPSIS":"539.143","EPHEMERIS_TYPE":"0","OBJECT_TYPE":"PAYLOAD","FILE":"3925691","MEAN_ELEMENT_THEORY":"SGP4","REF_FRAME":"TEME","OBJECT_ID":"2022-016AF","NORAD_CAT_ID":"51743","OBJECT_NAME":"STARLINK-3512","SITE":"AFETR","MEAN_ANOMALY":"295.7319","MEAN_MOTION_DDOT":"0.0000000000000","SEMIMAJOR_AXIS":"6917.877","APOAPSIS":"540.342","COUNTRY_CODE":"US","PERIOD":"95.437","ECCENTRICITY":"0.00008660","TLE_LINE1":"1 51743U 22016AF  23156.41386787  .00000407  00000-0  43674-4 0  9991","INCLINATION":"53.2150","CENTER_NAME":"EARTH","MEAN_MOTION_DOT":"0.00000407","LAUNCH_DATE":"2022-02-21","CLASSIFICATION_TYPE":"U","RCS_SIZE":"LARGE","ELEMENT_SET_NO":"999","RA_OF_ASC_NODE":"155.4560","GP_ID":"233258707","TLE_LINE2":"2 51743  53.2150 155.4560 0000866  64.3762 295.7319 15.08840949 71486","TIME_SYSTEM":"UTC","DECAY_DATE":null,"MEAN_MOTION":"15.08840949","EPOCH":"2023-06-05T09:55:58.183968","ARG_OF_PERICENTER":"64.3762"},{"SITE":"AFETR","OBJECT_NAME":"STARLINK-3452","SEMIMAJOR_AXIS":"6917.892","MEAN_MOTION_DDOT":"0.0000000000000","MEAN_ANOMALY":"283.4906","OBJECT_ID":"2022-016AG","NORAD_CAT_ID":"51744","FILE":"3925751","OBJECT_TYPE":"PAYLOAD","EPHEMERIS_TYPE":"0","REF_FRAME":"TEME","MEAN_ELEMENT_THEORY":"SGP4","BSTAR":"0.00001495100000","PERIAPSIS":"539.090","REV_AT_EPOCH":"7139","TLE_LINE1":"1 51744U 22016AG  23156.71375790 -.00000050  00000-0  14951-4 0  9998","ECCENTRICITY":"0.00009640","PERIOD":"95.438","COUNTRY_CODE":"US","APOAPSIS":"540.424","CLASSIFICATION_TYPE":"U","LAUNCH_DATE":"2022-02-21","RCS_SIZE":"LARGE","INCLINATION":"53.2154","CENTER_NAME":"EARTH","MEAN_MOTION_DOT":"-0.00000050","DECAY_DATE":null,"TIME_SYSTEM":"UTC","ARG_OF_PERICENTER":"76.6193","MEAN_MOTION":"15.08836298","EPOCH":"2023-06-05T17:07:48.682560","TLE_LINE2":"2 51744  53.2154 164.1263 0000964  76.6193 283.4906 15.08836298 71399","RA_OF_ASC_NODE":"164.1263","GP_ID":"233285917","ELEMENT_SET_NO":"999"},{"COUNTRY_CODE":"US","PERIOD":"95.438","APOAPSIS":"540.533","TLE_LINE1":"1 51745U 22016AH  23156.72479662 -.00000036  00000-0  15835-4 0  9999","ECCENTRICITY":"0.00011180","MEAN_ELEMENT_THEORY":"SGP4","REF_FRAME":"TEME","EPHEMERIS_TYPE":"0","FILE":"3925751","OBJECT_TYPE":"PAYLOAD","PERIAPSIS":"538.986","REV_AT_EPOCH":"7139","BSTAR":"0.00001583500000","MEAN_ANOMALY":"273.2671","SEMIMAJOR_AXIS":"6917.894","MEAN_MOTION_DDOT":"0.0000000000000","OBJECT_NAME":"STARLINK-3449","SITE":"AFETR","NORAD_CAT_ID":"51745","OBJECT_ID":"2022-016AH","GP_ID":"233286667","RA_OF_ASC_NODE":"164.0476","ELEMENT_SET_NO":"999","EPOCH":"2023-06-05T17:23:42.427968","MEAN_MOTION":"15.08835464","ARG_OF_PERICENTER":"86.8449","DECAY_DATE":null,"TIME_SYSTEM":"UTC","TLE_LINE2":"2 51745  53.2156 164.0476 0001118  86.8449 273.2671 15.08835464 71396","RCS_SIZE":"LARGE","LAUNCH_DATE":"2022-02-21","CLASSIFICATION_TYPE":"U","MEAN_MOTION_DOT":"-0.00000036","CENTER_NAME":"EARTH","INCLINATION":"53.2156"},{"APOAPSIS":"540.470","COUNTRY_CODE":"US","PERIOD":"95.437","TLE_LINE1":"1 51746U 22016AJ  23156.27770829  .00001154  00000-0  90581-4 0  9991","ECCENTRICITY":"0.00010610","PERIAPSIS":"539.002","REV_AT_EPOCH":"7146","BSTAR":"0.00009058100000","MEAN_ELEMENT_THEORY":"SGP4","REF_FRAME":"TEME","EPHEMERIS_TYPE":"0","FILE":"3925691","OBJECT_TYPE":"PAYLOAD","NORAD_CAT_ID":"51746","OBJECT_ID":"2022-016AJ","MEAN_ANOMALY":"282.3706","MEAN_MOTION_DDOT":"0.0000000000000","SEMIMAJOR_AXIS":"6917.871","OBJECT_NAME":"STARLINK-3502","SITE":"AFETR","ELEMENT_SET_NO":"999","GP_ID":"233258457","RA_OF_ASC_NODE":"156.0667","TLE_LINE2":"2 51746  53.2157 156.0667 0001061  77.7405 282.3706 15.08843192 71464","MEAN_MOTION":"15.08843192","EPOCH":"2023-06-05T06:39:53.996256","ARG_OF_PERICENTER":"77.7405","DECAY_DATE":null,"TIME_SYSTEM":"UTC","MEAN_MOTION_DOT":"0.00001154","CENTER_NAME":"EARTH","INCLINATION":"53.2157","RCS_SIZE":"LARGE","LAUNCH_DATE":"2022-02-21","CLASSIFICATION_TYPE":"U"},{"MEAN_ELEMENT_THEORY":"SGP4","REF_FRAME":"TEME","EPHEMERIS_TYPE":"0","OBJECT_TYPE":"PAYLOAD","FILE":"3925751","PERIAPSIS":"538.967","REV_AT_EPOCH":"7139","BSTAR":"0.00006064900000","MEAN_ANOMALY":"280.5164","MEAN_MOTION_DDOT":"0.0000000000000","SEMIMAJOR_AXIS":"6917.887","OBJECT_NAME":"STARLINK-3446","SITE":"AFETR","NORAD_CAT_ID":"51747","OBJECT_ID":"2022-016AK","COUNTRY_CODE":"US","PERIOD":"95.438","APOAPSIS":"540.537","TLE_LINE1":"1 51747U 22016AK  23156.71839852  .00000677  00000-0  60649-4 0  9994","ECCENTRICITY":"0.00011350","RCS_SIZE":"LARGE","LAUNCH_DATE":"2022-02-21","CLASSIFICATION_TYPE":"U","MEAN_MOTION_DOT":"0.00000677","INCLINATION":"53.2154","CENTER_NAME":"EARTH","GP_ID":"233285166","RA_OF_ASC_NODE":"164.1255","ELEMENT_SET_NO":"999","MEAN_MOTION":"15.08837936","EPOCH":"2023-06-05T17:14:29.632128","ARG_OF_PERICENTER":"79.5956","DECAY_DATE":null,"TIME_SYSTEM":"UTC","TLE_LINE2":"2 51747  53.2154 164.1255 0001135  79.5956 280.5164 15.08837936 71397"},{"RCS_SIZE":"LARGE","LAUNCH_DATE":"2022-02-21","CLASSIFICATION_TYPE":"U","MEAN_MOTION_DOT":"-0.00000124","CENTER_NAME":"EARTH","INCLINATION":"53.2158","GP_ID":"233286417","RA_OF_ASC_NODE":"153.7137","ELEMENT_SET_NO":"999","MEAN_MOTION":"15.08839752","EPOCH":"2023-06-05T19:11:00.626784","ARG_OF_PERICENTER":"87.1920","DECAY_DATE":null,"TIME_SYSTEM":"UTC","TLE_LINE2":"2 51748  53.2158 153.7137 0001071  87.1920 272.9195 15.08839752 71544","MEAN_ELEMENT_THEORY":"SGP4","REF_FRAME":"TEME","EPHEMERIS_TYPE":"0","FILE":"3925751","OBJECT_TYPE":"PAYLOAD","REV_AT_EPOCH":"7154","PERIAPSIS":"539.005","BSTAR":"0.00001031000000","MEAN_ANOMALY":"272.9195","SEMIMAJOR_AXIS":"6917.881","MEAN_MOTION_DDOT":"0.0000000000000","OBJECT_NAME":"STARLINK-3501","SITE":"AFETR","NORAD_CAT_ID":"51748","OBJECT_ID":"2022-016AL","COUNTRY_CODE":"US","PERIOD":"95.438","APOAPSIS":"540.487","TLE_LINE1":"1 51748U 22016AL  23156.79931281 -.00000124  00000-0  10310-4 0  9990","ECCENTRICITY":"0.00010710"},{"ECCENTRICITY":"0.00010660","TLE_LINE1":"1 51749U 22016AM  23156.82785502  .00000001  00000-0  18135-4 0  9994","PERIOD":"95.438","COUNTRY_CODE":"US","APOAPSIS":"540.485","MEAN_MOTION_DDOT":"0.0000000000000","SEMIMAJOR_AXIS":"6917.882","MEAN_ANOMALY":"277.1662","SITE":"AFETR","OBJECT_NAME":"STARLINK-3451","NORAD_CAT_ID":"51749","OBJECT_ID":"2022-016AM","REF_FRAME":"TEME","MEAN_ELEMENT_THEORY":"SGP4","FILE":"3925751","OBJECT_TYPE":"PAYLOAD","EPHEMERIS_TYPE":"0","PERIAPSIS":"539.010","REV_AT_EPOCH":"7140","BSTAR":"0.00001813500000","ARG_OF_PERICENTER":"82.9451","EPOCH":"2023-06-05T19:52:06.673728","MEAN_MOTION":"15.08839406","DECAY_DATE":null,"TIME_SYSTEM":"UTC","TLE_LINE2":"2 51749  53.2161 163.7710 0001066  82.9451 277.1662 15.08839406 71400","GP_ID":"233286168","RA_OF_ASC_NODE":"163.7710","ELEMENT_SET_NO":"999","RCS_SIZE":"LARGE","CLASSIFICATION_TYPE":"U","LAUNCH_DATE":"2022-02-21","MEAN_MOTION_DOT":"0.00000001","INCLINATION":"53.2161","CENTER_NAME":"EARTH"},{"TLE_LINE1":"1 51750U 22016AN  23156.72571306  .00000394  00000-0  42818-4 0  9990","ECCENTRICITY":"0.00010070","PERIOD":"95.438","COUNTRY_CODE":"US","APOAPSIS":"540.441","SITE":"AFETR","OBJECT_NAME":"STARLINK-3505","MEAN_MOTION_DDOT":"0.0000000000000","SEMIMAJOR_AXIS":"6917.879","MEAN_ANOMALY":"277.8310","OBJECT_ID":"2022-016AN","NORAD_CAT_ID":"51750","FILE":"3925751","OBJECT_TYPE":"PAYLOAD","EPHEMERIS_TYPE":"0","REF_FRAME":"TEME","MEAN_ELEMENT_THEORY":"SGP4","BSTAR":"0.00004281800000","PERIAPSIS":"539.048","REV_AT_EPOCH":"7153","DECAY_DATE":null,"TIME_SYSTEM":"UTC","ARG_OF_PERICENTER":"82.2797","EPOCH":"2023-06-05T17:25:01.608384","MEAN_MOTION":"15.08840355","TLE_LINE2":"2 51750  53.2159 154.0423 0001007  82.2797 277.8310 15.08840355 71530","RA_OF_ASC_NODE":"154.0423","GP_ID":"233285416","ELEMENT_SET_NO":"999","CLASSIFICATION_TYPE":"U","LAUNCH_DATE":"2022-02-21","RCS_SIZE":"LARGE","INCLINATION":"53.2159","CENTER_NAME":"EARTH","MEAN_MOTION_DOT":"0.00000394"}];
